{"fetched_at":"2026-03-29T02:12:04Z","count":15717,"tles":[{"name":"STARLINK-31359","line1":"1 58945U 24027Q   26087.53995515 -.00000807  00000+0 -15131-4 0  9992","line2":"2 58945  53.1605 183.6268 0001395  87.1596 272.9565 15.30192318120766","category":"Starlink"}]}